<?xml version="1.0" encoding="UTF-8"?>
<ndm xmlns:xsi="http://www.w3.org/2001/XMLSchema-instance" xsi:noNamespaceSchemaLocation="https://sanaregistry.org/r/ndmxml_unqualified/ndmxml-2.0.0-master-2.0.xsd">
<omm id="CCSDS_OMM_VERS" version="2.0">
<header><CREATION_DATE/><ORIGINATOR/></header><body><segment><metadata><OBJECT_NAME>ORBCOMM FM33</OBJECT_NAME><OBJECT_ID>1999-065D</OBJECT_ID><CENTER_NAME>EARTH</CENTER_NAME><REF_FRAME>TEME</REF_FRAME><TIME_SYSTEM>UTC</TIME_SYSTEM><MEAN_ELEMENT_THEORY>SGP4</MEAN_ELEMENT_THEORY></metadata><data><meanElements><EPOCH>2025-01-21T02:58:19.856352</EPOCH><MEAN_MOTION>14.39299721</MEAN_MOTION><ECCENTRICITY>.0008964</ECCENTRICITY><INCLINATION>45.0296</INCLINATION><RA_OF_ASC_NODE>337.8355</RA_OF_ASC_NODE><ARG_OF_PERICENTER>30.1924</ARG_OF_PERICENTER><MEAN_ANOMALY>329.9441</MEAN_ANOMALY></meanElements><tleParameters><EPHEMERIS_TYPE>0</EPHEMERIS_TYPE><CLASSIFICATION_TYPE>U</CLASSIFICATION_TYPE><NORAD_CAT_ID>25983</NORAD_CAT_ID><ELEMENT_SET_NO>999</ELEMENT_SET_NO><REV_AT_EPOCH>31494</REV_AT_EPOCH><BSTAR>.1368E-2</BSTAR><MEAN_MOTION_DOT>.4149E-4</MEAN_MOTION_DOT><MEAN_MOTION_DDOT>0</MEAN_MOTION_DDOT></tleParameters></data></segment></body></omm>
<omm id="CCSDS_OMM_VERS" version="2.0">
<header><CREATION_DATE/><ORIGINATOR/></header><body><segment><metadata><OBJECT_NAME>ORBCOMM FM36</OBJECT_NAME><OBJECT_ID>1999-065E</OBJECT_ID><CENTER_NAME>EARTH</CENTER_NAME><REF_FRAME>TEME</REF_FRAME><TIME_SYSTEM>UTC</TIME_SYSTEM><MEAN_ELEMENT_THEORY>SGP4</MEAN_ELEMENT_THEORY></metadata><data><meanElements><EPOCH>2025-01-21T04:08:33.475488</EPOCH><MEAN_MOTION>14.37412454</MEAN_MOTION><ECCENTRICITY>.0005585</ECCENTRICITY><INCLINATION>45.0392</INCLINATION><RA_OF_ASC_NODE>67.2654</RA_OF_ASC_NODE><ARG_OF_PERICENTER>276.1707</ARG_OF_PERICENTER><MEAN_ANOMALY>83.8505</MEAN_ANOMALY></meanElements><tleParameters><EPHEMERIS_TYPE>0</EPHEMERIS_TYPE><CLASSIFICATION_TYPE>U</CLASSIFICATION_TYPE><NORAD_CAT_ID>25984</NORAD_CAT_ID><ELEMENT_SET_NO>999</ELEMENT_SET_NO><REV_AT_EPOCH>31385</REV_AT_EPOCH><BSTAR>.12186E-2</BSTAR><MEAN_MOTION_DOT>.3536E-4</MEAN_MOTION_DOT><MEAN_MOTION_DDOT>0</MEAN_MOTION_DDOT></tleParameters></data></segment></body></omm>
<omm id="CCSDS_OMM_VERS" version="2.0">
<header><CREATION_DATE/><ORIGINATOR/></header><body><segment><metadata><OBJECT_NAME>ORBCOMM FM35</OBJECT_NAME><OBJECT_ID>1999-065F</OBJECT_ID><CENTER_NAME>EARTH</CENTER_NAME><REF_FRAME>TEME</REF_FRAME><TIME_SYSTEM>UTC</TIME_SYSTEM><MEAN_ELEMENT_THEORY>SGP4</MEAN_ELEMENT_THEORY></metadata><data><meanElements><EPOCH>2025-01-21T04:34:14.592288</EPOCH><MEAN_MOTION>14.36500967</MEAN_MOTION><ECCENTRICITY>.0003201</ECCENTRICITY><INCLINATION>45.0393</INCLINATION><RA_OF_ASC_NODE>71.0989</RA_OF_ASC_NODE><ARG_OF_PERICENTER>339.9229</ARG_OF_PERICENTER><MEAN_ANOMALY>20.1493</MEAN_ANOMALY></meanElements><tleParameters><EPHEMERIS_TYPE>0</EPHEMERIS_TYPE><CLASSIFICATION_TYPE>U</CLASSIFICATION_TYPE><NORAD_CAT_ID>25985</NORAD_CAT_ID><ELEMENT_SET_NO>999</ELEMENT_SET_NO><REV_AT_EPOCH>31383</REV_AT_EPOCH><BSTAR>.84067E-3</BSTAR><MEAN_MOTION_DOT>.2349E-4</MEAN_MOTION_DOT><MEAN_MOTION_DDOT>0</MEAN_MOTION_DDOT></tleParameters></data></segment></body></omm>
<omm id="CCSDS_OMM_VERS" version="2.0">
<header><CREATION_DATE/><ORIGINATOR/></header><body><segment><metadata><OBJECT_NAME>ORBCOMM FM34</OBJECT_NAME><OBJECT_ID>1999-065G</OBJECT_ID><CENTER_NAME>EARTH</CENTER_NAME><REF_FRAME>TEME</REF_FRAME><TIME_SYSTEM>UTC</TIME_SYSTEM><MEAN_ELEMENT_THEORY>SGP4</MEAN_ELEMENT_THEORY></metadata><data><meanElements><EPOCH>2025-01-20T12:49:39.578304</EPOCH><MEAN_MOTION>14.36545423</MEAN_MOTION><ECCENTRICITY>.0005215</ECCENTRICITY><INCLINATION>45.0386</INCLINATION><RA_OF_ASC_NODE>74.7181</RA_OF_ASC_NODE><ARG_OF_PERICENTER>299.9841</ARG_OF_PERICENTER><MEAN_ANOMALY>60.0489</MEAN_ANOMALY></meanElements><tleParameters><EPHEMERIS_TYPE>0</EPHEMERIS_TYPE><CLASSIFICATION_TYPE>U</CLASSIFICATION_TYPE><NORAD_CAT_ID>25986</NORAD_CAT_ID><ELEMENT_SET_NO>999</ELEMENT_SET_NO><REV_AT_EPOCH>31370</REV_AT_EPOCH><BSTAR>.89911E-3</BSTAR><MEAN_MOTION_DOT>.2524E-4</MEAN_MOTION_DOT><MEAN_MOTION_DDOT>0</MEAN_MOTION_DDOT></tleParameters></data></segment></body></omm>
<omm id="CCSDS_OMM_VERS" version="2.0">
<header><CREATION_DATE/><ORIGINATOR/></header><body><segment><metadata><OBJECT_NAME>ORBCOMM FM38</OBJECT_NAME><OBJECT_ID>2008-031A</OBJECT_ID><CENTER_NAME>EARTH</CENTER_NAME><REF_FRAME>TEME</REF_FRAME><TIME_SYSTEM>UTC</TIME_SYSTEM><MEAN_ELEMENT_THEORY>SGP4</MEAN_ELEMENT_THEORY></metadata><data><meanElements><EPOCH>2025-01-21T04:26:27.970944</EPOCH><MEAN_MOTION>14.80181515</MEAN_MOTION><ECCENTRICITY>.0005502</ECCENTRICITY><INCLINATION>48.4402</INCLINATION><RA_OF_ASC_NODE>295.2775</RA_OF_ASC_NODE><ARG_OF_PERICENTER>126.3659</ARG_OF_PERICENTER><MEAN_ANOMALY>233.7764</MEAN_ANOMALY></meanElements><tleParameters><EPHEMERIS_TYPE>0</EPHEMERIS_TYPE><CLASSIFICATION_TYPE>U</CLASSIFICATION_TYPE><NORAD_CAT_ID>33060</NORAD_CAT_ID><ELEMENT_SET_NO>999</ELEMENT_SET_NO><REV_AT_EPOCH>89295</REV_AT_EPOCH><BSTAR>.7217E-3</BSTAR><MEAN_MOTION_DOT>.5335E-4</MEAN_MOTION_DOT><MEAN_MOTION_DDOT>0</MEAN_MOTION_DDOT></tleParameters></data></segment></body></omm>
<omm id="CCSDS_OMM_VERS" version="2.0">
<header><CREATION_DATE/><ORIGINATOR/></header><body><segment><metadata><OBJECT_NAME>ORBCOMM FM41</OBJECT_NAME><OBJECT_ID>2008-031B</OBJECT_ID><CENTER_NAME>EARTH</CENTER_NAME><REF_FRAME>TEME</REF_FRAME><TIME_SYSTEM>UTC</TIME_SYSTEM><MEAN_ELEMENT_THEORY>SGP4</MEAN_ELEMENT_THEORY></metadata><data><meanElements><EPOCH>2025-01-20T19:39:34.063200</EPOCH><MEAN_MOTION>14.79805496</MEAN_MOTION><ECCENTRICITY>.0004621</ECCENTRICITY><INCLINATION>48.4440</INCLINATION><RA_OF_ASC_NODE>304.3125</RA_OF_ASC_NODE><ARG_OF_PERICENTER>109.2660</ARG_OF_PERICENTER><MEAN_ANOMALY>291.7174</MEAN_ANOMALY></meanElements><tleParameters><EPHEMERIS_TYPE>0</EPHEMERIS_TYPE><CLASSIFICATION_TYPE>U</CLASSIFICATION_TYPE><NORAD_CAT_ID>33061</NORAD_CAT_ID><ELEMENT_SET_NO>999</ELEMENT_SET_NO><REV_AT_EPOCH>89240</REV_AT_EPOCH><BSTAR>.6452E-3</BSTAR><MEAN_MOTION_DOT>.4702E-4</MEAN_MOTION_DOT><MEAN_MOTION_DDOT>0</MEAN_MOTION_DDOT></tleParameters></data></segment></body></omm>
<omm id="CCSDS_OMM_VERS" version="2.0">
<header><CREATION_DATE/><ORIGINATOR/></header><body><segment><metadata><OBJECT_NAME>ORBCOMM FM29</OBJECT_NAME><OBJECT_ID>2008-031C</OBJECT_ID><CENTER_NAME>EARTH</CENTER_NAME><REF_FRAME>TEME</REF_FRAME><TIME_SYSTEM>UTC</TIME_SYSTEM><MEAN_ELEMENT_THEORY>SGP4</MEAN_ELEMENT_THEORY></metadata><data><meanElements><EPOCH>2025-01-20T19:24:32.448960</EPOCH><MEAN_MOTION>14.79847444</MEAN_MOTION><ECCENTRICITY>.0006354</ECCENTRICITY><INCLINATION>48.4395</INCLINATION><RA_OF_ASC_NODE>312.3209</RA_OF_ASC_NODE><ARG_OF_PERICENTER>107.4292</ARG_OF_PERICENTER><MEAN_ANOMALY>281.8375</MEAN_ANOMALY></meanElements><tleParameters><EPHEMERIS_TYPE>0</EPHEMERIS_TYPE><CLASSIFICATION_TYPE>U</CLASSIFICATION_TYPE><NORAD_CAT_ID>33062</NORAD_CAT_ID><ELEMENT_SET_NO>999</ELEMENT_SET_NO><REV_AT_EPOCH>89231</REV_AT_EPOCH><BSTAR>.66328E-3</BSTAR><MEAN_MOTION_DOT>.4846E-4</MEAN_MOTION_DOT><MEAN_MOTION_DDOT>0</MEAN_MOTION_DDOT></tleParameters></data></segment></body></omm>
<omm id="CCSDS_OMM_VERS" version="2.0">
<header><CREATION_DATE/><ORIGINATOR/></header><body><segment><metadata><OBJECT_NAME>ORBCOMM FM39</OBJECT_NAME><OBJECT_ID>2008-031D</OBJECT_ID><CENTER_NAME>EARTH</CENTER_NAME><REF_FRAME>TEME</REF_FRAME><TIME_SYSTEM>UTC</TIME_SYSTEM><MEAN_ELEMENT_THEORY>SGP4</MEAN_ELEMENT_THEORY></metadata><data><meanElements><EPOCH>2025-01-21T02:25:46.551936</EPOCH><MEAN_MOTION>14.78544766</MEAN_MOTION><ECCENTRICITY>.0007156</ECCENTRICITY><INCLINATION>48.4415</INCLINATION><RA_OF_ASC_NODE>333.6565</RA_OF_ASC_NODE><ARG_OF_PERICENTER>81.4966</ARG_OF_PERICENTER><MEAN_ANOMALY>278.6759</MEAN_ANOMALY></meanElements><tleParameters><EPHEMERIS_TYPE>0</EPHEMERIS_TYPE><CLASSIFICATION_TYPE>U</CLASSIFICATION_TYPE><NORAD_CAT_ID>33063</NORAD_CAT_ID><ELEMENT_SET_NO>999</ELEMENT_SET_NO><REV_AT_EPOCH>89244</REV_AT_EPOCH><BSTAR>.62683E-3</BSTAR><MEAN_MOTION_DOT>.4424E-4</MEAN_MOTION_DOT><MEAN_MOTION_DDOT>0</MEAN_MOTION_DDOT></tleParameters></data></segment></body></omm>

</ndm>
