ORBCOMM FM33            
1 25983U 99065D   25021.12384093  .00004149  00000+0  13680-2 0  9993
2 25983  45.0296 337.8355 0008964  30.1924 329.9441 14.39299721314945
ORBCOMM FM36            
1 25984U 99065E   25021.17260967  .00003536  00000+0  12186-2 0  9991
2 25984  45.0392  67.2654 0005585 276.1707  83.8505 14.37412454313850
ORBCOMM FM35            
1 25985U 99065F   25021.19044667  .00002349  00000+0  84067-3 0  9990
2 25985  45.0393  71.0989 0003201 339.9229  20.1493 14.36500967313830
ORBCOMM FM34            
1 25986U 99065G   25020.53448586  .00002524  00000+0  89911-3 0  9994
2 25986  45.0386  74.7181 0005215 299.9841  60.0489 14.36545423313709
ORBCOMM FM38            
1 33060U 08031A   25021.18504596  .00005335  00000+0  72170-3 0  9997
2 33060  48.4402 295.2775 0005502 126.3659 233.7764 14.80181515892956
ORBCOMM FM41            
1 33061U 08031B   25020.81914425  .00004702  00000+0  64520-3 0  9990
2 33061  48.4440 304.3125 0004621 109.2660 291.7174 14.79805496892401
ORBCOMM FM29            
1 33062U 08031C   25020.80870890  .00004846  00000+0  66328-3 0  9994
2 33062  48.4395 312.3209 0006354 107.4292 281.8375 14.79847444892311
ORBCOMM FM39            
1 33063U 08031D   25021.10123324  .00004424  00000+0  62683-3 0  9994
2 33063  48.4415 333.6565 0007156  81.4966 278.6759 14.78544766892440
